TDRS 3                  
1 19548U 88091B   18284.51111861 -.00000314  00000-0  00000-0 0  9999
2 19548  14.4086   3.1446 0035373 311.3446 187.1506  1.00266094 97274
HST                     
1 20580U 90037B   18284.57826567  .00000537  00000-0  21893-4 0  9995
2 20580  28.4698  65.6553 0002626 316.2764 123.5425 15.09108863362980
TDRS 5                  
1 21639U 91054B   18284.55638556  .00000073  00000-0  00000-0 0  9996
2 21639  14.6097  16.4575 0020667 347.0627  49.4557  1.00281866 99585
TDRS 6                  
1 22314U 93003B   18284.40229774 -.00000307  00000-0  00000-0 0  9996
2 22314  14.1852  19.4829 0003848 303.0374 156.4055  1.00268688 94313
TDRS 7                  
1 23613U 95035B   18284.79341358 -.00000214  00000-0  00000+0 0  9997
2 23613  14.7690  10.1614 0025514  15.7872   4.7812  1.00271516 85024
ISS (ZARYA)             
1 25544U 98067A   18285.14389473  .00002328  00000-0  42859-4 0  9990
2 25544  51.6416 155.8836 0003503 274.5367 223.4866 15.53810603136706
LANDSAT 7               
1 25682U 99020A   18285.18219622  .00000194  00000-0  52896-4 0  9996
2 25682  98.1618 353.1268 0001326  76.5637 283.5702 14.57139507 36785
TERRA                   
1 25994U 99068A   18284.78490739 -.00000154  00000-0 -24174-4 0  9995
2 25994  98.1981 357.9122 0001378  80.5800 279.5552 14.57123440   800
TDRS 8                  
1 26388U 00034A   18283.84218767 -.00000247  00000-0  00000+0 0  9992
2 26388   8.2697  51.9564 0008765 256.2937 103.6217  1.00273409 67033
TIMED                   
1 26998U 01055B   18284.53916937  .00000099  00000-0  14831-4 0  9990
2 26998  74.0713  77.1907 0001971 301.3401  58.7587 14.88053522913022
TDRS 9                  
1 27389U 02011A   18284.26834272 -.00000117  00000-0  00000+0 0  9999
2 27389   6.2285  73.5911 0017878 248.7040 141.9916  1.00271314 62307
AQUA                    
1 27424U 02022A   18285.24204758  .00000096  00000-0  31350-4 0  9992
2 27424  98.2040 224.6491 0003052  80.5642  57.5253 14.57113527874470
TDRS 10                 
1 27566U 02055A   18284.58300459  .00000068  00000-0  00000-0 0  9999
2 27566   5.8539  56.2961 0007667 236.1232 123.8428  1.00292916 58104
SORCE                   
1 27651U 03004A   18285.14420761  .00000134  00000-0  28277-4 0  9995
2 27651  39.9950 155.3101 0021490  18.3491 341.8069 14.88908462852642
AURA                    
1 28376U 04026A   18284.74047479  .00000099  00000-0  31949-4 0  9991
2 28376  98.2040 226.3101 0001839  71.0500 289.0897 14.57117489757447
SWIFT                   
1 28485U 04047A   18284.56078270  .00001018  00000-0  39767-4 0  9996
2 28485  20.5579   8.1130 0010973 200.6850 159.3140 15.04210867760753
THEMIS A                
1 30580U 07004A   18280.36848159 -.00000625  00000-0  00000+0 0  9993
2 30580   8.9240 137.0650 8318033 234.6898  19.6387  0.87835201 41260
THEMIS D                
1 30797U 07004D   18284.47400985 -.00000764  00000-0  00000-0 0  9995
2 30797   5.1808  92.0255 8544827 289.5037   3.8988  0.71870570 17161
THEMIS E                
1 30798U 07004E   18284.29870295 -.00000647  00000-0  00000+0 0  9990
2 30798   5.2830 118.1649 8375238 262.4394 350.4617  0.81315329 41567
AIM                     
1 31304U 07015A   18285.11584039  .00000813  00000-0  50440-4 0  9998
2 31304  97.9846 132.0190 0003991 305.7597  54.3261 15.12767789627784
FGRST (GLAST)           
1 33053U 08029A   18285.16311073  .00000576  00000-0  16314-4 0  9996
2 33053  25.5835 323.0425 0012733  97.5837 262.6145 15.11139084570302
WISE                    
1 36119U 09071A   18285.15780584  .00000910  00000-0  34703-4 0  9990
2 36119  97.4037 316.9639 0004054  64.6162 295.5497 15.29249817489917
TDRS 11                 
1 39070U 13004A   18284.33263140  .00000071  00000-0  00000-0 0  9990
2 39070   4.7359 328.8545 0005661 296.1214  63.6040  1.00278721 18564
TDRS 12                 
1 39504U 14004A   18284.98957966 -.00000292  00000-0  00000+0 0  9995
2 39504   5.4257 336.0647 0002598 247.0388 112.7680  1.00275292 17327
GPM-CORE                
1 39574U 14009C   18284.76858761  .00002636  00000-0  42650-4 0  9991
2 39574  65.0071  82.1699 0011297 283.3736  76.6150 15.55487556262440
MMS 1                   
1 40482U 15011A   18282.59027778 -.00000367  00000-0  00000+0 0  9998
2 40482   3.4390 330.8609 9069073 152.2660 316.6313  0.35508664  9362
MMS 2                   
1 40483U 15011B   18284.35150038 -.00000500  00000-0  00000-0 0  9991
2 40483   3.3752 331.4682 9065314 151.7081 181.7973  0.35527538  9451
MMS 3                   
1 40484U 15011C   18282.60277778 -.00000369  00000-0  00000+0 0  9991
2 40484   3.4424 330.9835 9067806 152.1534 318.1958  0.35508632  9351
MMS 4                   
1 40485U 15011D   18281.58680556 -.00000268  00000-0  00000+0 0  9998
2 40485   3.4880 330.3239 9069995 152.7399 188.3553  0.35508460  9331
TDRS 13                 
1 42915U 17047A   18284.00051495 -.00000314  00000-0  00000-0 0  9996
2 42915   6.4833 331.0607 0025821   6.9548 352.9439  1.00273675  4210
JPSS-1                  
1 43013U 17073A   18284.58859233  .00000015  00000-0  27862-4 0  9990
2 43013  98.7331 221.2203 0000713  82.1457 277.9800 14.19548743 46429
